[{"OBJECT_NAME":"STARLINK-36130","OBJECT_ID":"2025-286G","EPOCH":"2026-03-09T01:51:23.905728","MEAN_MOTION":15.30197984,"ECCENTRICITY":6.66e-5,"INCLINATION":53.1622,"RA_OF_ASC_NODE":1.2527,"ARG_OF_PERICENTER":111.3589,"MEAN_ANOMALY":248.7483,"EPHEMERIS_TYPE":0,"CLASSIFICATION_TYPE":"U","NORAD_CAT_ID":66931,"ELEMENT_SET_NO":999,"REV_AT_EPOCH":1532,"BSTAR":0.0012635331,"MEAN_MOTION_DOT":0.00037248,"MEAN_MOTION_DDOT":0},{"OBJECT_NAME":"DELTA 2 R\/B","OBJECT_ID":"1990-074B","EPOCH":"2026-03-09T13:41:18.722976","MEAN_MOTION":14.63139944,"ECCENTRICITY":0.0331131,"INCLINATION":24.7574,"RA_OF_ASC_NODE":207.7051,"ARG_OF_PERICENTER":168.7615,"MEAN_ANOMALY":192.0502,"EPHEMERIS_TYPE":0,"CLASSIFICATION_TYPE":"U","NORAD_CAT_ID":20763,"ELEMENT_SET_NO":999,"REV_AT_EPOCH":86338,"BSTAR":0.00071917,"MEAN_MOTION_DOT":8.858e-5,"MEAN_MOTION_DDOT":0}]
